[{"OBJECT_NAME":"ALOS (DAICHI)","OBJECT_ID":"2006-002A","EPOCH":"2026-04-25T03:12:00.932832","MEAN_MOTION":14.69936293,"ECCENTRICITY":0.0001912,"INCLINATION":98.1286,"RA_OF_ASC_NODE":70.8835,"ARG_OF_PERICENTER":104.7527,"MEAN_ANOMALY":255.3891,"EPHEMERIS_TYPE":0,"CLASSIFICATION_TYPE":"U","NORAD_CAT_ID":28931,"ELEMENT_SET_NO":999,"REV_AT_EPOCH":8030,"BSTAR":0.00016515698,"MEAN_MOTION_DOT":9.39e-6,"MEAN_MOTION_DDOT":0},{"OBJECT_NAME":"H-2A R/B","OBJECT_ID":"2006-002B","EPOCH":"2026-04-25T05:53:30.094944","MEAN_MOTION":15.17372128,"ECCENTRICITY":0.0052456,"INCLINATION":98.2498,"RA_OF_ASC_NODE":266.335,"ARG_OF_PERICENTER":83.6389,"MEAN_ANOMALY":277.0812,"EPHEMERIS_TYPE":0,"CLASSIFICATION_TYPE":"U","NORAD_CAT_ID":28932,"ELEMENT_SET_NO":999,"REV_AT_EPOCH":10149,"BSTAR":0.00044668636,"MEAN_MOTION_DOT":9.166e-5,"MEAN_MOTION_DDOT":0},{"OBJECT_NAME":"RESURS-DK 1","OBJECT_ID":"2006-021A","EPOCH":"2026-04-25T06:44:24.509472","MEAN_MOTION":15.12983849,"ECCENTRICITY":0.00032132,"INCLINATION":69.9298,"RA_OF_ASC_NODE":116.4816,"ARG_OF_PERICENTER":341.6234,"MEAN_ANOMALY":18.4815,"EPHEMERIS_TYPE":0,"CLASSIFICATION_TYPE":"U","NORAD_CAT_ID":29228,"ELEMENT_SET_NO":999,"REV_AT_EPOCH":9457,"BSTAR":0.00013047321,"MEAN_MOTION_DOT":2.2e-5,"MEAN_MOTION_DDOT":0},{"OBJECT_NAME":"CZ-4B R/B","OBJECT_ID":"2006-046C","EPOCH":"2026-04-25T02:35:23.278848","MEAN_MOTION":15.17341723,"ECCENTRICITY":0.00345979,"INCLINATION":97.551,"RA_OF_ASC_NODE":159.8832,"ARG_OF_PERICENTER":106.1953,"MEAN_ANOMALY":254.3092,"EPHEMERIS_TYPE":0,"CLASSIFICATION_TYPE":"U","NORAD_CAT_ID":29507,"ELEMENT_SET_NO":999,"REV_AT_EPOCH":6708,"BSTAR":0.00018993293,"MEAN_MOTION_DOT":3.777e-5,"MEAN_MOTION_DDOT":0},{"OBJECT_NAME":"CZ-2C R/B","OBJECT_ID":"2007-010B","EPOCH":"2026-04-25T07:02:37.310496","MEAN_MOTION":14.20262199,"ECCENTRICITY":0.0059537,"INCLINATION":98.4035,"RA_OF_ASC_NODE":226.2483,"ARG_OF_PERICENTER":157.7243,"MEAN_ANOMALY":202.6541,"EPHEMERIS_TYPE":0,"CLASSIFICATION_TYPE":"U","NORAD_CAT_ID":31114,"ELEMENT_SET_NO":999,"REV_AT_EPOCH":98633,"BSTAR":6.675719e-5,"MEAN_MOTION_DOT":1.05e-6,"MEAN_MOTION_DDOT":0},{"OBJECT_NAME":"COSMO-SKYMED 1","OBJECT_ID":"2007-023A","EPOCH":"2026-04-25T07:53:54.447360","MEAN_MOTION":14.96835543,"ECCENTRICITY":0.00013079,"INCLINATION":97.887,"RA_OF_ASC_NODE":306.7454,"ARG_OF_PERICENTER":101.5488,"MEAN_ANOMALY":258.588,"EPHEMERIS_TYPE":0,"CLASSIFICATION_TYPE":"U","NORAD_CAT_ID":31598,"ELEMENT_SET_NO":999,"REV_AT_EPOCH":2188,"BSTAR":0.00024884099,"MEAN_MOTION_DOT":2.791e-5,"MEAN_MOTION_DDOT":0},{"OBJECT_NAME":"COSMOS 2428","OBJECT_ID":"2007-029A","EPOCH":"2026-04-25T06:13:32.316384","MEAN_MOTION":14.12945455,"ECCENTRICITY":0.0009113,"INCLINATION":70.9391,"RA_OF_ASC_NODE":105.595,"ARG_OF_PERICENTER":225.6383,"MEAN_ANOMALY":134.3992,"EPHEMERIS_TYPE":0,"CLASSIFICATION_TYPE":"U","NORAD_CAT_ID":31792,"ELEMENT_SET_NO":999,"REV_AT_EPOCH":97067,"BSTAR":-7.3222352e-5,"MEAN_MOTION_DOT":-1.84e-6,"MEAN_MOTION_DDOT":0},{"OBJECT_NAME":"SL-16 R/B","OBJECT_ID":"2007-029B","EPOCH":"2026-04-25T05:36:51.492384","MEAN_MOTION":14.14844408,"ECCENTRICITY":0.00025053,"INCLINATION":70.9746,"RA_OF_ASC_NODE":74.5418,"ARG_OF_PERICENTER":268.1134,"MEAN_ANOMALY":193.8352,"EPHEMERIS_TYPE":0,"CLASSIFICATION_TYPE":"U","NORAD_CAT_ID":31793,"ELEMENT_SET_NO":999,"REV_AT_EPOCH":97195,"BSTAR":0.0001897636,"MEAN_MOTION_DOT":3.19e-6,"MEAN_MOTION_DDOT":0},{"OBJECT_NAME":"KORONAS-FOTON","OBJECT_ID":"2009-003A","EPOCH":"2026-04-25T07:09:30.376800","MEAN_MOTION":15.44549517,"ECCENTRICITY":0.00097999,"INCLINATION":82.4311,"RA_OF_ASC_NODE":227.3751,"ARG_OF_PERICENTER":353.4513,"MEAN_ANOMALY":6.6605,"EPHEMERIS_TYPE":0,"CLASSIFICATION_TYPE":"U","NORAD_CAT_ID":33504,"ELEMENT_SET_NO":999,"REV_AT_EPOCH":95293,"BSTAR":0.00031809079,"MEAN_MOTION_DOT":0.00014835,"MEAN_MOTION_DDOT":0},{"OBJECT_NAME":"CZ-2C R/B","OBJECT_ID":"2011-030B","EPOCH":"2026-04-25T07:22:54.291648","MEAN_MOTION":14.81354293,"ECCENTRICITY":0.00518801,"INCLINATION":97.8615,"RA_OF_ASC_NODE":71.6673,"ARG_OF_PERICENTER":197.1221,"MEAN_ANOMALY":324.9135,"EPHEMERIS_TYPE":0,"CLASSIFICATION_TYPE":"U","NORAD_CAT_ID":37731,"ELEMENT_SET_NO":999,"REV_AT_EPOCH":79699,"BSTAR":0.00011776811,"MEAN_MOTION_DOT":8.86e-6,"MEAN_MOTION_DDOT":0},{"OBJECT_NAME":"H-2A R/B","OBJECT_ID":"2012-025E","EPOCH":"2026-04-25T04:02:22.606944","MEAN_MOTION":14.95436876,"ECCENTRICITY":0.00445406,"INCLINATION":98.4796,"RA_OF_ASC_NODE":85.9702,"ARG_OF_PERICENTER":159.0608,"MEAN_ANOMALY":201.2447,"EPHEMERIS_TYPE":0,"CLASSIFICATION_TYPE":"U","NORAD_CAT_ID":38341,"ELEMENT_SET_NO":999,"REV_AT_EPOCH":75516,"BSTAR":0.00015744433,"MEAN_MOTION_DOT":1.705e-5,"MEAN_MOTION_DDOT":0},{"OBJECT_NAME":"SHIJIAN-16 (SJ-16)","OBJECT_ID":"2013-057A","EPOCH":"2026-04-25T06:51:17.314848","MEAN_MOTION":14.92469941,"ECCENTRICITY":0.00161741,"INCLINATION":74.9709,"RA_OF_ASC_NODE":96.8662,"ARG_OF_PERICENTER":353.6549,"MEAN_ANOMALY":6.4432,"EPHEMERIS_TYPE":0,"CLASSIFICATION_TYPE":"U","NORAD_CAT_ID":39358,"ELEMENT_SET_NO":999,"REV_AT_EPOCH":67845,"BSTAR":2.4231297e-5,"MEAN_MOTION_DOT":2.19e-6,"MEAN_MOTION_DDOT":0},{"OBJECT_NAME":"SL-4 R/B","OBJECT_ID":"2014-021B","EPOCH":"2026-04-25T03:45:42.020640","MEAN_MOTION":15.4066455,"ECCENTRICITY":0.00926924,"INCLINATION":51.6055,"RA_OF_ASC_NODE":110.315,"ARG_OF_PERICENTER":273.0195,"MEAN_ANOMALY":86.0186,"EPHEMERIS_TYPE":0,"CLASSIFICATION_TYPE":"U","NORAD_CAT_ID":39679,"ELEMENT_SET_NO":999,"REV_AT_EPOCH":66343,"BSTAR":0.00028128296,"MEAN_MOTION_DOT":0.00013151,"MEAN_MOTION_DDOT":0},{"OBJECT_NAME":"ALOS-2","OBJECT_ID":"2014-029A","EPOCH":"2026-04-25T04:23:01.850784","MEAN_MOTION":14.79472741,"ECCENTRICITY":0.00018283,"INCLINATION":97.9197,"RA_OF_ASC_NODE":213.1044,"ARG_OF_PERICENTER":85.938,"MEAN_ANOMALY":274.2041,"EPHEMERIS_TYPE":0,"CLASSIFICATION_TYPE":"U","NORAD_CAT_ID":39766,"ELEMENT_SET_NO":999,"REV_AT_EPOCH":64374,"BSTAR":5.6478626e-5,"MEAN_MOTION_DOT":3.7e-6,"MEAN_MOTION_DDOT":0},{"OBJECT_NAME":"YAOGAN-29","OBJECT_ID":"2015-069A","EPOCH":"2026-04-25T08:23:15.632736","MEAN_MOTION":14.83037901,"ECCENTRICITY":0.00016659,"INCLINATION":98.0078,"RA_OF_ASC_NODE":143.8902,"ARG_OF_PERICENTER":142.0653,"MEAN_ANOMALY":218.0678,"EPHEMERIS_TYPE":0,"CLASSIFICATION_TYPE":"U","NORAD_CAT_ID":41038,"ELEMENT_SET_NO":999,"REV_AT_EPOCH":56279,"BSTAR":-2.6752656e-5,"MEAN_MOTION_DOT":-2.72e-6,"MEAN_MOTION_DDOT":0},{"OBJECT_NAME":"ASTRO-H (HITOMI)","OBJECT_ID":"2016-012A","EPOCH":"2026-04-25T03:58:54.663744","MEAN_MOTION":15.10270764,"ECCENTRICITY":0.00093807,"INCLINATION":30.9995,"RA_OF_ASC_NODE":56.5538,"ARG_OF_PERICENTER":79.3523,"MEAN_ANOMALY":280.8172,"EPHEMERIS_TYPE":0,"CLASSIFICATION_TYPE":"U","NORAD_CAT_ID":41337,"ELEMENT_SET_NO":999,"REV_AT_EPOCH":55926,"BSTAR":0.00017745545,"MEAN_MOTION_DOT":3.074e-5,"MEAN_MOTION_DDOT":0}]
