ALOS (DAICHI)           
1 28931U 06002A   26115.13334413  .00000939  00000+0  16516-3 0  9990
2 28931  98.1286  70.8835 0001912 104.7527 255.3891 14.69936293 80305
H-2A R/B                
1 28932U 06002B   26115.24548721  .00009166  00000+0  44669-3 0  9993
2 28932  98.2498 266.3350 0052456  83.6389 277.0812 15.17372128101499
RESURS-DK 1             
1 29228U 06021A   26115.28083923  .00002200  00000+0  13047-3 0  9993
2 29228  69.9298 116.4816 0003213 341.6234  18.4815 15.12983849 94579
CZ-4B R/B               
1 29507U 06046C   26115.10790832  .00003777  00000+0  18993-3 0  9990
2 29507  97.5510 159.8832 0034597 106.1953 254.3092 15.17341723 67081
CZ-2C R/B               
1 31114U 07010B   26115.29348739  .00000105  00000+0  66757-4 0  9998
2 31114  98.4035 226.2483 0059537 157.7243 202.6541 14.20262199986331
COSMO-SKYMED 1          
1 31598U 07023A   26115.32910240  .00002791  00000+0  24884-3 0  9991
2 31598  97.8870 306.7454 0001307 101.5488 258.5880 14.96835543 21887
COSMOS 2428             
1 31792U 07029A   26115.25940181 -.00000184  00000+0 -73222-4 0  9999
2 31792  70.9391 105.5950 0009113 225.6383 134.3992 14.12945455970671
SL-16 R/B               
1 31793U 07029B   26115.23392931  .00000319  00000+0  18976-3 0  9994
2 31793  70.9746  74.5418 0002505 268.1134 193.8352 14.14844408971954
KORONAS-FOTON           
1 33504U 09003A   26115.29826825  .00014835  00000+0  31809-3 0  9998
2 33504  82.4311 227.3751 0009799 353.4513   6.6605 15.44549517952937
CZ-2C R/B               
1 37731U 11030B   26115.30757282  .00000886  00000+0  11777-3 0  9992
2 37731  97.8615  71.6673 0051880 197.1221 324.9135 14.81354293796991
H-2A R/B                
1 38341U 12025E   26115.16831721  .00001705  00000+0  15744-3 0  9999
2 38341  98.4796  85.9702 0044540 159.0608 201.2447 14.95436876755168
SHIJIAN-16 (SJ-16)      
1 39358U 13057A   26115.28561707  .00000219  00000+0  24231-4 0  9992
2 39358  74.9709  96.8662 0016174 353.6549   6.4432 14.92469941678455
SL-4 R/B                
1 39679U 14021B   26115.15673635  .00013151  00000+0  28128-3 0  9997
2 39679  51.6055 110.3150 0092692 273.0195  86.0186 15.40664550663431
ALOS-2                  
1 39766U 14029A   26115.18266031  .00000370  00000+0  56479-4 0  9993
2 39766  97.9197 213.1044 0001828  85.9380 274.2041 14.79472741643742
YAOGAN-29               
1 41038U 15069A   26115.34948649 -.00000272  00000+0 -26753-4 0  9998
2 41038  98.0078 143.8902 0001665 142.0653 218.0678 14.83037901562793
ASTRO-H (HITOMI)        
1 41337U 16012A   26115.16591046  .00003074  00000+0  17746-3 0  9996
2 41337  30.9995  56.5538 0009380  79.3523 280.8172 15.10270764559264
